NORAD_CAT_ID,OBJECT_NAME,OBJECT_TYPE,EPOCH,MEAN_MOTION,ECCENTRICITY,INCLINATION,RA_OF_ASC_NODE,ARG_OF_PERICENTER,MEAN_ANOMALY,BSTAR,MEAN_MOTION_DOT,MEAN_MOTION_DDOT,TLE_LINE0,TLE_LINE1,TLE_LINE2,SEMIMAJOR_AXIS,PERIOD,APOGEE,PERIGEE,DECAYED
52642.0,STARLINK-3971,PAYLOAD,2023-01-13 08:29:18,15.08843904,0.0002573,53.2182,27.6635,34.7503,325.3657,0.0011492,0.00018051,0.0,0 STARLINK-3971,1 52642U 22052AW  23013.35368236  .00018051  00000-0  11492-2 0  9999,2 52642  53.2182  27.6635 0002573  34.7503 325.3657 15.08843904 37317,6917.868,95.437,541.513,537.953,0.0
52642.0,STARLINK-3971,PAYLOAD,2023-01-13 18:01:37,15.08840979,0.0002456,53.2176,25.88,37.5785,322.5378,0.00060015,9.277e-05,0.0,0 STARLINK-3971,1 52642U 22052AW  23013.75112347  .00009277  00000-0  60015-3 0  9999,2 52642  53.2176  25.8800 0002456  37.5785 322.5378 15.08840979 37371,6917.877,95.437,541.441,538.043,0.0
52642.0,STARLINK-3971,PAYLOAD,2023-01-14 00:23:09,15.08837756,0.0002463999999999,53.2176,24.6904,39.8916,320.2257,0.00028719,4.285e-05,0.0,0 STARLINK-3971,1 52642U 22052AW  23014.01608462  .00004285  00000-0  28719-3 0  9996,2 52642  53.2176  24.6904 0002464  39.8916 320.2257 15.08837756 37799,6917.887,95.438,541.457,538.048,0.0
52642.0,STARLINK-3971,PAYLOAD,2023-01-15 09:46:15,15.0884779,0.000246,53.2181,18.4459,55.4097,304.7127,0.00039936,6.075e-05,0.0,0 STARLINK-3971,1 52642U 22052AW  23015.40712430  .00006075  00000-0  39936-3 0  9993,2 52642  53.2181  18.4459 0002460  55.4097 304.7127 15.08847790 38008,6917.857,95.437,541.423,538.02,0.0
52642.0,STARLINK-3971,PAYLOAD,2023-01-15 17:43:11,15.08846244,0.0002419,53.217,16.9591,54.9381,305.1838,0.00028131,4.192e-05,0.0,0 STARLINK-3971,1 52642U 22052AW  23015.73832393  .00004192  00000-0  28131-3 0  9993,2 52642  53.2170  16.9591 0002419  54.9381 305.1838 15.08846244 37679,6917.861,95.437,541.4,538.053,0.0
52642.0,STARLINK-3971,PAYLOAD,2023-01-16 09:37:01,15.08886328,0.0002000999999999,53.2182,13.9863,59.36,300.759,0.0016323,0.00025819,0.0,0 STARLINK-3971,1 52642U 22052AW  23016.40071160  .00025819  00000-0  16323-2 0  9993,2 52642  53.2182  13.9863 0002001  59.3600 300.7590 15.08886328 38158,6917.7390000000005,95.435,540.988,538.22,0.0
52642.0,STARLINK-3971,PAYLOAD,2023-01-16 20:44:44,15.08816529,0.0002181,53.2179,11.9044,37.5815,322.5329,-0.00051357,-8.447e-05,0.0,0 STARLINK-3971,1 52642U 22052AW  23016.86440290 -.00008447  00000-0 -51357-3 0  9994,2 52642  53.2179  11.9044 0002181  37.5815 322.5329 15.08816529 37841,6917.951999999999,95.439,541.326,538.308,0.0
52642.0,STARLINK-3971,PAYLOAD,2023-01-17 01:30:53,15.08818654,0.0001646,53.2189,11.0118,74.4042,285.7132,0.00053682,8.261e-05,0.0,0 STARLINK-3971,1 52642U 22052AW  23017.06312417  .00008261  00000-0  53682-3 0  9991,2 52642  53.2189  11.0118 0001646  74.4042 285.7132 15.08818654 38251,6917.946,95.439,540.9490000000001,538.672,0.0
52642.0,STARLINK-3971,PAYLOAD,2023-01-17 06:17:03,15.08814781,0.0001751999999999,53.2189,10.1197,75.0067,285.1119,0.00083642,0.0001304,0.0,0 STARLINK-3971,1 52642U 22052AW  23017.26184763  .00013040  00000-0  83642-3 0  9994,2 52642  53.2189  10.1197 0001752  75.0067 285.1119 15.08814781 37907,6917.956999999999,95.439,541.035,538.61,0.0
52642.0,STARLINK-3971,PAYLOAD,2023-01-17 15:49:23,15.08831286,0.000174,53.2191,8.3359,77.4836,282.6351,0.0018936,0.0002996999999999,0.0,0 STARLINK-3971,1 52642U 22052AW  23017.65929471  .00029970  00000-0  18936-2 0  9992,2 52642  53.2191   8.3359 0001740  77.4836 282.6351 15.08831286 37961,6917.906999999999,95.438,540.976,538.568,0.0
52642.0,STARLINK-3971,PAYLOAD,2023-01-18 02:57:04,15.08860851,0.000176,53.219,6.2543,79.3514,280.7676,0.00197,0.00031222,0.0,0 STARLINK-3971,1 52642U 22052AW  23018.12297236  .00031222  00000-0  19700-2 0  9995,2 52642  53.2190   6.2543 0001760  79.3514 280.7676 15.08860851 38418,6917.816999999999,95.436,540.899,538.464,0.0
52642.0,STARLINK-3971,PAYLOAD,2023-01-18 07:43:13,15.08883997,0.0001761999999999,53.2189,5.3624,80.6144,279.5047,0.0026951,0.00042918,0.0,0 STARLINK-3971,1 52642U 22052AW  23018.32168761  .00042918  00000-0  26951-2 0  9997,2 52642  53.2189   5.3624 0001762  80.6144 279.5047 15.08883997 38449,6917.746,95.435,540.83,538.3919999999999,0.0
52642.0,STARLINK-3971,PAYLOAD,2023-01-18 15:40:09,15.08869529,0.0002286,53.2196,3.8736,78.2987,281.8262,0.0012338,0.00019419,0.0,0 STARLINK-3971,1 52642U 22052AW  23018.65288667  .00019419  00000-0  12338-2 0  9995,2 52642  53.2196   3.8736 0002286  78.2987 281.8262 15.08869529 38499,6917.79,95.436,541.237,538.0740000000001,0.0
52642.0,STARLINK-3971,PAYLOAD,2023-01-19 07:33:59,15.08874568,0.0001345,53.2186,0.902,81.3061,278.8084,0.0020287,0.00032177,0.0,0 STARLINK-3971,1 52642U 22052AW  23019.31527678  .00032177  00000-0  20287-2 0  9995,2 52642  53.2186   0.9020 0001345  81.3061 278.8084 15.08874568 38593,6917.775,95.435,540.57,538.7090000000001,0.0
52642.0,STARLINK-3971,PAYLOAD,2023-01-20 12:10:57,15.0884852,0.0001389,53.2185,355.5497,109.2272,250.8871,0.0016030999999999,0.00025323,0.0,0 STARLINK-3971,1 52642U 22052AW  23020.50761065  .00025323  00000-0  16031-2 0  9995,2 52642  53.2185 355.5497 0001389 109.2272 250.8871 15.08848520 38774,6917.854,95.437,540.68,538.758,0.0
52642.0,STARLINK-3971,PAYLOAD,2023-01-20 15:21:44,15.08829024,0.0001395,53.2182,354.9545,103.4085,256.7063,0.00091621,0.00014319,0.0,0 STARLINK-3971,1 52642U 22052AW  23020.64009515  .00014319  00000-0  91621-3 0  9997,2 52642  53.2182 354.9545 0001395 103.4085 256.7063 15.08829024 38791,6917.914000000001,95.438,540.744,538.814,0.0
52642.0,STARLINK-3971,PAYLOAD,2023-01-21 04:04:49,15.0885736,0.0001486999999999,53.2182,352.5757,98.7535,261.3625,0.0030991,0.00049404,0.0,0 STARLINK-3971,1 52642U 22052AW  23021.17001476  .00049404  00000-0  30991-2 0  9999,2 52642  53.2182 352.5757 0001487  98.7535 261.3625 15.08857360 38877,6917.826999999999,95.436,540.721,538.664,0.0
52642.0,STARLINK-3971,PAYLOAD,2023-01-21 15:12:31,15.0885113,0.0002068,53.2194,350.4945,85.1965,274.9264,0.001289,0.00020292,0.0,0 STARLINK-3971,1 52642U 22052AW  23021.63369599  .00020292  00000-0  12890-2 0  9995,2 52642  53.2194 350.4945 0002068  85.1965 274.9264 15.08851130 38945,6917.846,95.437,541.1419999999999,538.281,0.0
52642.0,STARLINK-3971,PAYLOAD,2023-01-22 03:55:35,15.08857424,0.0001373,53.2188,348.1162,92.8623,267.2527,0.00084324,0.00013164,0.0,0 STARLINK-3971,1 52642U 22052AW  23022.16361088  .00013164  00000-0  84324-3 0  9991,2 52642  53.2188 348.1162 0001373  92.8623 267.2527 15.08857424 39026,6917.826999999999,95.436,540.6419999999999,538.742,0.0
52642.0,STARLINK-3971,PAYLOAD,2023-01-22 15:03:18,15.0883604,0.0002286,53.2205,346.0338,77.0136,283.1111,0.00060641,9.375e-05,0.0,0 STARLINK-3971,1 52642U 22052AW  23022.62729851  .00009375  00000-0  60641-3 0  9993,2 52642  53.2205 346.0338 0002286  77.0136 283.1111 15.08836040 39090,6917.892,95.438,541.339,538.1759999999999,0.0
52642.0,STARLINK-3971,PAYLOAD,2023-01-23 06:57:10,15.0883797,0.0002029,53.2209,343.0593,83.8277,276.2947,0.0011027,0.00017304,0.0,0 STARLINK-3971,1 52642U 22052AW  23023.28970166  .00017304  00000-0  11027-2 0  9997,2 52642  53.2209 343.0593 0002029  83.8277 276.2947 15.08837970 39194,6917.887,95.438,541.155,538.3480000000001,0.0
52642.0,STARLINK-3971,PAYLOAD,2023-01-24 03:37:10,15.08856203,0.000145,53.219,339.1939,85.6875,274.4283,0.0010275,0.0001610999999999,0.0,0 STARLINK-3971,1 52642U 22052AW  23024.15082118  .00016110  00000-0  10275-2 0  9993,2 52642  53.2190 339.1939 0001450  85.6875 274.4283 15.08856203 39322,6917.831,95.437,540.6990000000001,538.693,0.0
52642.0,STARLINK-3971,PAYLOAD,2023-01-25 03:27:57,15.08858688,0.0001167999999999,53.2195,334.7344,80.2493,279.8631,0.0011539,0.00018133,0.0,0 STARLINK-3971,1 52642U 22052AW  23025.14442045  .00018133  00000-0  11539-2 0  9993,2 52642  53.2195 334.7344 0001168  80.2493 279.8631 15.08858688 39472,6917.823,95.436,540.496,538.88,0.0
52642.0,STARLINK-3971,PAYLOAD,2023-01-25 13:00:16,15.08845875,0.0001234,53.2204,332.9494,72.3656,287.7471,0.0002015,2.921e-05,0.0,0 STARLINK-3971,1 52642U 22052AW  23025.54186003  .00002921  00000-0  20150-3 0  9994,2 52642  53.2204 332.9494 0001234  72.3656 287.7471 15.08845875 39537,6917.861999999999,95.437,540.581,538.874,0.0
52642.0,STARLINK-3971,PAYLOAD,2023-01-26 04:54:07,15.08850008,0.0001435,53.2211,329.9798,94.4711,265.6445,0.00049686,7.631e-05,0.0,0 STARLINK-3971,1 52642U 22052AW  23026.20425843  .00007631  00000-0  49686-3 0  9994,2 52642  53.2211 329.9798 0001435  94.4711 265.6445 15.08850008 39257,6917.85,95.437,540.7080000000001,538.722,0.0
52642.0,STARLINK-3971,PAYLOAD,2023-01-27 01:34:08,15.08843573,0.0001220999999999,53.2189,326.1109,101.9276,258.1853,0.00022749,3.335e-05,0.0,0 STARLINK-3971,1 52642U 22052AW  23027.06537968  .00003335  00000-0  22749-3 0  9999,2 52642  53.2189 326.1109 0001221 101.9276 258.1853 15.08843573 39764,6917.869000000001,95.437,540.5790000000001,538.89,0.0
52642.0,STARLINK-3971,PAYLOAD,2023-01-27 04:44:54,15.08850161,0.0001327,53.2191,325.5159,107.4542,252.6595,0.00041578,6.337e-05,0.0,0 STARLINK-3971,1 52642U 22052AW  23027.19785758  .00006337  00000-0  41578-3 0  9991,2 52642  53.2191 325.5159 0001327 107.4542 252.6595 15.08850161 39403,6917.849,95.437,540.632,538.7959999999999,0.0
52642.0,STARLINK-3971,PAYLOAD,2023-01-28 01:24:55,15.08847702,0.0001401,53.2192,321.6497,108.5676,251.5469,0.00014682,2.05e-05,0.0,0 STARLINK-3971,1 52642U 22052AW  23028.05897580  .00002050  00000-0  14682-3 0  9998,2 52642  53.2192 321.6497 0001401 108.5676 251.5469 15.08847702 39910,6917.857,95.437,540.691,538.753,0.0
52642.0,STARLINK-3971,PAYLOAD,2023-01-28 04:35:41,15.08853609,0.0001161,53.2185,321.057,100.537,259.5753,0.00023821,3.507e-05,0.0,0 STARLINK-3971,1 52642U 22052AW  23028.19145150  .00003507  00000-0  23821-3 0  9995,2 52642  53.2185 321.0570 0001161 100.5370 259.5753 15.08853609 39551,6917.839,95.437,540.507,538.901,0.0
